{
  "type": "FeatureCollection",
  "features": [
    {
      "type": "Feature",
      "properties": {
        "norad_id": 43719,
        "name": "HYSIS",
        "group": "resource",
        "lat": -39.35429812909405,
        "lon": 52.20529968045543,
        "alt_km": 640.3637145794046,
        "timestamp": "2025-12-08T13:49:31.451020+00:00",
        "meta_object_name": "HYSIS",
        "meta_object_id": "2018-096A",
        "meta_epoch": "2025-12-08T05:53:04.486848",
        "meta_mean_motion": 14.78627148,
        "meta_eccentricity": 0.00015187,
        "meta_inclination": 98.01,
        "meta_ra_of_asc_node": 45.2449,
        "meta_arg_of_pericenter": 62.5566,
        "meta_mean_anomaly": 297.5799,
        "meta_ephemeris_type": 0,
        "meta_classification_type": "U",
        "meta_norad_cat_id": 43719,
        "meta_element_set_no": 999,
        "meta_rev_at_epoch": 37920,
        "meta_bstar": 0.00033101198,
        "meta_mean_motion_dot": 2.372e-05,
        "meta_mean_motion_ddot": 0,
        "tle_line1": "1 43719U 18096A   25342.24519082  .00002372  00000+0  33101-3 0  9999",
        "tle_line2": "2 43719  98.0100  45.2449 0001518  62.5566 297.5799 14.78627148379204"
      },
      "geometry": {
        "type": "Point",
        "coordinates": [
          52.20529968045543,
          -39.35429812909405
        ]
      }
    },
    {
      "type": "Feature",
      "properties": {
        "norad_id": 43783,
        "name": "KAZSTSAT",
        "group": "resource",
        "lat": -65.62004262554672,
        "lon": -178.85504533402198,
        "alt_km": 577.0097414522188,
        "timestamp": "2025-12-08T13:49:31.451031+00:00",
        "meta_object_name": "KAZSTSAT",
        "meta_object_id": "2018-099AB",
        "meta_epoch": "2025-12-08T01:30:57.863808",
        "meta_mean_motion": 14.99330221,
        "meta_eccentricity": 0.0006174,
        "meta_inclination": 97.4554,
        "meta_ra_of_asc_node": 17.449,
        "meta_arg_of_pericenter": 349.1995,
        "meta_mean_anomaly": 10.9095,
        "meta_ephemeris_type": 0,
        "meta_classification_type": "U",
        "meta_norad_cat_id": 43783,
        "meta_element_set_no": 999,
        "meta_rev_at_epoch": 38266,
        "meta_bstar": 0.0002132483,
        "meta_mean_motion_dot": 2.551e-05,
        "meta_mean_motion_ddot": 0,
        "tle_line1": "1 43783U 18099AB  25342.06316972  .00002551  00000+0  21325-3 0  9990",
        "tle_line2": "2 43783  97.4554  17.4490 0006174 349.1995  10.9095 14.99330221382667"
      },
      "geometry": {
        "type": "Point",
        "coordinates": [
          -178.85504533402198,
          -65.62004262554672
        ]
      }
    },
    {
      "type": "Feature",
      "properties": {
        "norad_id": 43831,
        "name": "SAUDISAT 5A",
        "group": "resource",
        "lat": -81.7771048321811,
        "lon": 159.79360883320746,
        "alt_km": 504.5317824929325,
        "timestamp": "2025-12-08T13:49:31.451041+00:00",
        "meta_object_name": "SAUDISAT 5A",
        "meta_object_id": "2018-102A",
        "meta_epoch": "2025-12-08T06:21:55.614528",
        "meta_mean_motion": 15.25572264,
        "meta_eccentricity": 0.0011816,
        "meta_inclination": 97.3354,
        "meta_ra_of_asc_node": 42.5428,
        "meta_arg_of_pericenter": 89.834,
        "meta_mean_anomaly": 270.4252,
        "meta_ephemeris_type": 0,
        "meta_classification_type": "U",
        "meta_norad_cat_id": 43831,
        "meta_element_set_no": 999,
        "meta_rev_at_epoch": 38654,
        "meta_bstar": 0.00033759375,
        "meta_mean_motion_dot": 8.517e-05,
        "meta_mean_motion_ddot": 0,
        "tle_line1": "1 43831U 18102A   25342.26522702  .00008517  00000+0  33759-3 0  9993",
        "tle_line2": "2 43831  97.3354  42.5428 0011816  89.8340 270.4252 15.25572264386543"
      },
      "geometry": {
        "type": "Point",
        "coordinates": [
          159.79360883320746,
          -81.7771048321811
        ]
      }
    },
    {
      "type": "Feature",
      "properties": {
        "norad_id": 43833,
        "name": "SAUDISAT 5B",
        "group": "resource",
        "lat": -46.46638628650157,
        "lon": 53.381698832822835,
        "alt_km": 501.22966464668207,
        "timestamp": "2025-12-08T13:49:31.451052+00:00",
        "meta_object_name": "SAUDISAT 5B",
        "meta_object_id": "2018-102C",
        "meta_epoch": "2025-12-08T06:09:43.088544",
        "meta_mean_motion": 15.25927274,
        "meta_eccentricity": 0.00125284,
        "meta_inclination": 97.3449,
        "meta_ra_of_asc_node": 45.265,
        "meta_arg_of_pericenter": 92.3652,
        "meta_mean_anomaly": 267.9021,
        "meta_ephemeris_type": 0,
        "meta_classification_type": "U",
        "meta_norad_cat_id": 43833,
        "meta_element_set_no": 999,
        "meta_rev_at_epoch": 38665,
        "meta_bstar": 0.00033071118,
        "meta_mean_motion_dot": 8.433e-05,
        "meta_mean_motion_ddot": 0,
        "tle_line1": "1 43833U 18102C   25342.25674871  .00008433  00000+0  33071-3 0  9993",
        "tle_line2": "2 43833  97.3449  45.2650 0012528  92.3652 267.9021 15.25927274386655"
      },
      "geometry": {
        "type": "Point",
        "coordinates": [
          53.381698832822835,
          -46.46638628650157
        ]
      }
    },
    {
      "type": "Feature",
      "properties": {
        "norad_id": 44622,
        "name": "GAOFEN-10R",
        "group": "resource",
        "lat": -2.800389738390741,
        "lon": 109.67054250785992,
        "alt_km": 627.5652769456165,
        "timestamp": "2025-12-08T13:49:31.451062+00:00",
        "meta_object_name": "GAOFEN-10R",
        "meta_object_id": "2019-066A",
        "meta_epoch": "2025-12-08T06:31:34.796064",
        "meta_mean_motion": 14.82768733,
        "meta_eccentricity": 0.00080894,
        "meta_inclination": 98.0276,
        "meta_ra_of_asc_node": 289.7608,
        "meta_arg_of_pericenter": 54.266,
        "meta_mean_anomaly": 305.9304,
        "meta_ephemeris_type": 0,
        "meta_classification_type": "U",
        "meta_norad_cat_id": 44622,
        "meta_element_set_no": 999,
        "meta_rev_at_epoch": 33408,
        "meta_bstar": 0.00038713394,
        "meta_mean_motion_dot": 3.076e-05,
        "meta_mean_motion_ddot": 0,
        "tle_line1": "1 44622U 19066A   25342.27193051  .00003076  00000+0  38713-3 0  9994",
        "tle_line2": "2 44622  98.0276 289.7608 0008089  54.2660 305.9304 14.82768733334081"
      },
      "geometry": {
        "type": "Point",
        "coordinates": [
          109.67054250785992,
          -2.800389738390741
        ]
      }
    },
    {
      "type": "Feature",
      "properties": {
        "norad_id": 44804,
        "name": "CARTOSAT-3",
        "group": "resource",
        "lat": 19.797198814414934,
        "lon": -135.08512788007505,
        "alt_km": 503.25120491066536,
        "timestamp": "2025-12-08T13:49:31.451072+00:00",
        "meta_object_name": "CARTOSAT-3",
        "meta_object_id": "2019-081A",
        "meta_epoch": "2025-12-08T06:48:08.749440",
        "meta_mean_motion": 15.19313456,
        "meta_eccentricity": 0.00139644,
        "meta_inclination": 97.4586,
        "meta_ra_of_asc_node": 41.9229,
        "meta_arg_of_pericenter": 101.0821,
        "meta_mean_anomaly": 259.1985,
        "meta_ephemeris_type": 0,
        "meta_classification_type": "U",
        "meta_norad_cat_id": 44804,
        "meta_element_set_no": 999,
        "meta_rev_at_epoch": 33448,
        "meta_bstar": 0.0002858522,
        "meta_mean_motion_dot": 5.983e-05,
        "meta_mean_motion_ddot": 0,
        "tle_line1": "1 44804U 19081A   25342.28343460  .00005983  00000+0  28585-3 0  9990",
        "tle_line2": "2 44804  97.4586  41.9229 0013964 101.0821 259.1985 15.19313456334483"
      },
      "geometry": {
        "type": "Point",
        "coordinates": [
          -135.08512788007505,
          19.797198814414934
        ]
      }
    },
    {
      "type": "Feature",
      "properties": {
        "norad_id": 44819,
        "name": "GAOFEN-12 01",
        "group": "resource",
        "lat": 57.51495832588146,
        "lon": -178.58051925828943,
        "alt_km": 622.3969811678953,
        "timestamp": "2025-12-08T13:49:31.451083+00:00",
        "meta_object_name": "GAOFEN-12 01",
        "meta_object_id": "2019-082A",
        "meta_epoch": "2025-12-08T06:47:25.904544",
        "meta_mean_motion": 14.80649738,
        "meta_eccentricity": 0.00011883,
        "meta_inclination": 97.8126,
        "meta_ra_of_asc_node": 348.6809,
        "meta_arg_of_pericenter": 263.1822,
        "meta_mean_anomaly": 96.9255,
        "meta_ephemeris_type": 0,
        "meta_classification_type": "U",
        "meta_norad_cat_id": 44819,
        "meta_element_set_no": 999,
        "meta_rev_at_epoch": 32584,
        "meta_bstar": 0.00013726379,
        "meta_mean_motion_dot": 1.004e-05,
        "meta_mean_motion_ddot": 0,
        "tle_line1": "1 44819U 19082A   25342.28293871  .00001004  00000+0  13726-3 0  9998",
        "tle_line2": "2 44819  97.8126 348.6809 0001188 263.1822  96.9255 14.80649738325849"
      },
      "geometry": {
        "type": "Point",
        "coordinates": [
          -178.58051925828943,
          57.51495832588146
        ]
      }
    }
  ]
}